{
  "norad_id": 62019,
  "name": "STARLINK-11404 [DTC]",
  "history": [
    {
      "epoch": "2026-03-28T20:58:10.791264Z",
      "apogee_km": 360.4309388541569,
      "perigee_km": 359.1178546811552,
      "latitude_deg": 1.3186397542585098e-05,
      "longitude_deg": 166.19561679936265,
      "height_km": 360.8312423979675,
      "semi_major_axis_km": 6737.911396767656,
      "eccentricity": 9.744e-05,
      "inclination_deg": 53.1575,
      "raan_deg": 307.0285,
      "arg_perigee_deg": 102.6047,
      "mean_anomaly_deg": 257.508,
      "mean_motion_rev_day": 15.6969335
    },
    {
      "epoch": "2026-03-30T05:03:32.237856Z",
      "apogee_km": 360.4493678991612,
      "perigee_km": 358.7918795237274,
      "latitude_deg": -4.570972888043844e-05,
      "longitude_deg": 36.94685247833991,
      "height_km": 360.921052866585,
      "semi_major_axis_km": 6737.757623711444,
      "eccentricity": 0.000123,
      "inclination_deg": 53.1564,
      "raan_deg": 300.437,
      "arg_perigee_deg": 117.8484,
      "mean_anomaly_deg": 242.2658,
      "mean_motion_rev_day": 15.69747087
    },
    {
      "epoch": "2026-03-30T05:03:32.238720Z",
      "apogee_km": 360.4493678991612,
      "perigee_km": 358.7918795237274,
      "latitude_deg": -4.5709728879265584e-05,
      "longitude_deg": 36.94684886848287,
      "height_km": 360.92105286658295,
      "semi_major_axis_km": 6737.757623711444,
      "eccentricity": 0.000123,
      "inclination_deg": 53.1564,
      "raan_deg": 300.437,
      "arg_perigee_deg": 117.8484,
      "mean_anomaly_deg": 242.2658,
      "mean_motion_rev_day": 15.69747087
    },
    {
      "epoch": "2026-03-30T14:13:39.127008Z",
      "apogee_km": 360.13173946552706,
      "perigee_km": 359.0039824259011,
      "latitude_deg": 4.8405262216068216e-05,
      "longitude_deg": -102.84182197140792,
      "height_km": 360.72529582223825,
      "semi_major_axis_km": 6737.704860945713,
      "eccentricity": 8.369e-05,
      "inclination_deg": 53.1566,
      "raan_deg": 298.5535,
      "arg_perigee_deg": 115.6043,
      "mean_anomaly_deg": 244.5062,
      "mean_motion_rev_day": 15.69765526
    },
    {
      "epoch": "2026-03-30T20:20:23.764992Z",
      "apogee_km": 360.2776012391241,
      "perigee_km": 359.1693579474413,
      "latitude_deg": -3.714217259182301e-05,
      "longitude_deg": 163.96629565881355,
      "height_km": 360.44975341757,
      "semi_major_axis_km": 6737.860479593282,
      "eccentricity": 8.224e-05,
      "inclination_deg": 53.1566,
      "raan_deg": 297.2987,
      "arg_perigee_deg": 70.2273,
      "mean_anomaly_deg": 289.8833,
      "mean_motion_rev_day": 15.69711143
    },
    {
      "epoch": "2026-03-31T20:47:19.728384Z",
      "apogee_km": 359.6516685135857,
      "perigee_km": 358.8297084355909,
      "latitude_deg": -5.852927451745007e-05,
      "longitude_deg": 151.20662054444716,
      "height_km": 360.5388296392052,
      "semi_major_axis_km": 6737.377688474588,
      "eccentricity": 6.1e-05,
      "inclination_deg": 53.1559,
      "raan_deg": 292.2763,
      "arg_perigee_deg": 201.1844,
      "mean_anomaly_deg": 158.9148,
      "mean_motion_rev_day": 15.69879871
    },
    {
      "epoch": "2026-04-01T19:42:35.060832Z",
      "apogee_km": 359.4377951165743,
      "perigee_km": 358.70748159177674,
      "latitude_deg": 3.4790338553105876e-05,
      "longitude_deg": 161.74387710700145,
      "height_km": 360.32332973945154,
      "semi_major_axis_km": 6737.209638354176,
      "eccentricity": 5.42e-05,
      "inclination_deg": 53.1564,
      "raan_deg": 287.5687,
      "arg_perigee_deg": 203.1719,
      "mean_anomaly_deg": 156.9275,
      "mean_motion_rev_day": 15.69938609
    },
    {
      "epoch": "2026-04-02T15:34:27.437952Z",
      "apogee_km": 360.9093117753273,
      "perigee_km": 358.14956360245105,
      "latitude_deg": -4.891104706616554e-05,
      "longitude_deg": -141.12193062997585,
      "height_km": 359.61267951403573,
      "semi_major_axis_km": 6737.666437688889,
      "eccentricity": 0.0002048,
      "inclination_deg": 53.1569,
      "raan_deg": 283.487,
      "arg_perigee_deg": 307.1493,
      "mean_anomaly_deg": 52.9337,
      "mean_motion_rev_day": 15.69778954
    },
    {
      "epoch": "2026-04-03T19:04:47.415936Z",
      "apogee_km": 360.9266873666529,
      "perigee_km": 358.9699473904875,
      "latitude_deg": -4.324531775104277e-06,
      "longitude_deg": 159.51574839866174,
      "height_km": 360.1686570631949,
      "semi_major_axis_km": 6738.08531737857,
      "eccentricity": 0.0001452,
      "inclination_deg": 53.1564,
      "raan_deg": 277.8375,
      "arg_perigee_deg": 44.9007,
      "mean_anomaly_deg": 315.2128,
      "mean_motion_rev_day": 15.69632576
    },
    {
      "epoch": "2026-04-04T21:03:24.925248Z",
      "apogee_km": 360.4931440472383,
      "perigee_km": 358.61629264217754,
      "latitude_deg": 1.2378222248063663e-05,
      "longitude_deg": 123.4564301840886,
      "height_km": 360.63791746198126,
      "semi_major_axis_km": 6737.691718344708,
      "eccentricity": 0.00013928,
      "inclination_deg": 53.1562,
      "raan_deg": 272.5013,
      "arg_perigee_deg": 100.456,
      "mean_anomaly_deg": 259.6615,
      "mean_motion_rev_day": 15.69770119
    },
    {
      "epoch": "2026-04-05T19:58:40.090944Z",
      "apogee_km": 359.84131765322945,
      "perigee_km": 359.1136552886901,
      "latitude_deg": -1.0056640278651928e-05,
      "longitude_deg": 133.99539439420116,
      "height_km": 360.2873718377815,
      "semi_major_axis_km": 6737.6144864709595,
      "eccentricity": 5.4e-05,
      "inclination_deg": 53.1567,
      "raan_deg": 267.7948,
      "arg_perigee_deg": 73.356,
      "mean_anomaly_deg": 286.7517,
      "mean_motion_rev_day": 15.6979711
    },
    {
      "epoch": "2026-04-05T21:30:20.930112Z",
      "apogee_km": 359.7871048747329,
      "perigee_km": 359.22451170024124,
      "latitude_deg": 5.7294242806979735e-06,
      "longitude_deg": 110.69828966481289,
      "height_km": 360.2979490686725,
      "semi_major_axis_km": 6737.642808287486,
      "eccentricity": 4.175e-05,
      "inclination_deg": 53.1571,
      "raan_deg": 267.4806,
      "arg_perigee_deg": 64.2585,
      "mean_anomaly_deg": 295.8476,
      "mean_motion_rev_day": 15.69787212
    },
    {
      "epoch": "2026-04-07T14:45:48.746592Z",
      "apogee_km": 360.5228350190646,
      "perigee_km": 359.08778806555256,
      "latitude_deg": -3.636122674296839e-06,
      "longitude_deg": -158.33691841605852,
      "height_km": 360.4672367418962,
      "semi_major_axis_km": 6737.942311542308,
      "eccentricity": 0.00010649,
      "inclination_deg": 53.1583,
      "raan_deg": 259.0057,
      "arg_perigee_deg": 69.4661,
      "mean_anomaly_deg": 290.6471,
      "mean_motion_rev_day": 15.69682547
    },
    {
      "epoch": "2026-04-07T17:49:10.729056Z",
      "apogee_km": 360.2647488989878,
      "perigee_km": 359.18399593485265,
      "latitude_deg": 3.6905020537097075e-06,
      "longitude_deg": 155.06668324572036,
      "height_km": 360.9139277938452,
      "semi_major_axis_km": 6737.86137241692,
      "eccentricity": 8.02e-05,
      "inclination_deg": 53.1573,
      "raan_deg": 258.3764,
      "arg_perigee_deg": 120.6719,
      "mean_anomaly_deg": 239.4378,
      "mean_motion_rev_day": 15.69710831
    },
    {
      "epoch": "2026-04-08T15:12:45.543744Z",
      "apogee_km": 360.34820912431496,
      "perigee_km": 359.05602633831586,
      "latitude_deg": 1.8629055001340102e-05,
      "longitude_deg": -171.0995489953761,
      "height_km": 360.18620715781935,
      "semi_major_axis_km": 6737.839117731315,
      "eccentricity": 9.589e-05,
      "inclination_deg": 53.1575,
      "raan_deg": 253.9838,
      "arg_perigee_deg": 48.2986,
      "mean_anomaly_deg": 311.8114,
      "mean_motion_rev_day": 15.69718608
    },
    {
      "epoch": "2026-04-09T18:43:03.721152Z",
      "apogee_km": 360.26044922427536,
      "perigee_km": 358.93850532743454,
      "latitude_deg": 5.474194394552508e-06,
      "longitude_deg": 129.54640636901743,
      "height_km": 360.9390607808828,
      "semi_major_axis_km": 6737.736477275855,
      "eccentricity": 9.81e-05,
      "inclination_deg": 53.1565,
      "raan_deg": 248.3351,
      "arg_perigee_deg": 130.1102,
      "mean_anomaly_deg": 230.0002,
      "mean_motion_rev_day": 15.69754477
    },
    {
      "epoch": "2026-04-10T13:03:15.934752Z",
      "apogee_km": 359.9527550738985,
      "perigee_km": 358.2724850186587,
      "latitude_deg": 4.579170221578099e-06,
      "longitude_deg": -150.02424881363325,
      "height_km": 360.79767391393074,
      "semi_major_axis_km": 6737.249620046278,
      "eccentricity": 0.0001247,
      "inclination_deg": 53.157,
      "raan_deg": 244.5684,
      "arg_perigee_deg": 156.5709,
      "mean_anomaly_deg": 203.5366,
      "mean_motion_rev_day": 15.69924634
    },
    {
      "epoch": "2026-04-11T18:05:16.118592Z",
      "apogee_km": 360.3831777500818,
      "perigee_km": 358.8483176741538,
      "latitude_deg": 1.6262603537420383e-05,
      "longitude_deg": 127.31843290173134,
      "height_km": 360.2418476575299,
      "semi_major_axis_km": 6737.7527477121175,
      "eccentricity": 0.0001139,
      "inclination_deg": 53.1568,
      "raan_deg": 238.6042,
      "arg_perigee_deg": 68.016,
      "mean_anomaly_deg": 292.0979,
      "mean_motion_rev_day": 15.69748791
    },
    {
      "epoch": "2026-04-13T02:10:37.836480Z",
      "apogee_km": 360.3766330972376,
      "perigee_km": 358.6301019611674,
      "latitude_deg": 2.8591114458655154e-05,
      "longitude_deg": -1.932613389504653,
      "height_km": 360.6367755318515,
      "semi_major_axis_km": 6737.640367529202,
      "eccentricity": 0.00012961,
      "inclination_deg": 53.157,
      "raan_deg": 232.0115,
      "arg_perigee_deg": 104.6096,
      "mean_anomaly_deg": 255.5066,
      "mean_motion_rev_day": 15.69788065
    }
  ]
}